GLOBALSTAR M084 [+]     
1 38040U 11080A   24088.96743731 -.00000078  00000+0  14428-3 0  9994
2 38040  52.0026 323.8860 0000895 101.7179 271.6401 12.62272735566443
GLOBALSTAR M080 [+]     
1 38041U 11080B   24088.94115639 -.00000074  00000+0  16567-3 0  9995
2 38041  52.0077 325.4180 0001119  97.9973 274.8903 12.62270468566567
GLOBALSTAR M082 [+]     
1 38042U 11080C   24088.79608866 -.00000095  00000+0  49939-4 0  9991
2 38042  52.0066 281.2583 0000317  57.6989 315.6899 12.62267611567421
GLOBALSTAR M086 [+]     
1 38045U 11080F   24088.76951413 -.00000089  00000+0  82314-4 0  9997
2 38045  51.9886 276.2371 0001631  71.3790 301.7735 12.62268926567317
GLOBALSTAR M093 [+]     
1 39073U 13005B   24088.52901397 -.00000068  00000+0  20059-3 0  9992
2 39073  51.9803 185.0782 0000541  75.5628 284.5298 12.62262558514483
